{"type": "FeatureCollection", "features": [ {"type": "Feature", "properties": {"norad_id": 40115, "name": "WORLDVIEW-3 (WV-3)", "group": "resource", "lat": -59.90876432113461, "lon": -137.6894257420679, "alt_km": 616.9714584771018, "timestamp": "2025-12-09T18:55:16.895696+00:00", "meta": {"OBJECT_NAME": "WORLDVIEW-3 (WV-3)", "OBJECT_ID": "2014-048A", "EPOCH": "2025-12-09T14:36:26.920224", "MEAN_MOTION": 14.85500269, "ECCENTRICITY": 0.00045136, "INCLINATION": 97.8619, "RA_OF_ASC_NODE": 55.9283, "ARG_OF_PERICENTER": 195.4086, "MEAN_ANOMALY": 164.6992, "EPHEMERIS_TYPE": 0, "CLASSIFICATION_TYPE": "U", "NORAD_CAT_ID": 40115, "ELEMENT_SET_NO": 999, "REV_AT_EPOCH": 61377, "BSTAR": 0.00024559787, "MEAN_MOTION_DOT": 2.067e-05, "MEAN_MOTION_DDOT": 0}, "tle": {"line1": "1 40115U 14048A   25343.60864491  .00002067  00000+0  24560-3 0  9997", "line2": "2 40115  97.8619  55.9283 0004513 195.4086 164.6992 14.85500269613772"}}, "geometry": {"type": "Point", "coordinates": [-137.6894257420679, -59.90876432113461]}}, {"type": "Feature", "properties": {"norad_id": 40118, "name": "GAOFEN-2", "group": "resource", "lat": 68.3759572028097, "lon": -116.1633386467061, "alt_km": 614.978547632486, "timestamp": "2025-12-09T18:55:16.895706+00:00", "meta": {"OBJECT_NAME": "GAOFEN-2", "OBJECT_ID": "2014-049A", "EPOCH": "2025-12-09T15:10:56.089632", "MEAN_MOTION": 14.8059978, "ECCENTRICITY": 0.00084254, "INCLINATION": 98.0384, "RA_OF_ASC_NODE": 42.7955, "ARG_OF_PERICENTER": 121.202, "MEAN_ANOMALY": 239.0019, "EPHEMERIS_TYPE": 0, "CLASSIFICATION_TYPE": "U", "NORAD_CAT_ID": 40118, "ELEMENT_SET_NO": 999, "REV_AT_EPOCH": 61118, "BSTAR": 0.00014198392, "MEAN_MOTION_DOT": 1.036e-05, "MEAN_MOTION_DDOT": 0}, "tle": {"line1": "1 40118U 14049A   25343.63259363  .00001036  00000+0  14198-3 0  9991", "line2": "2 40118  98.0384  42.7955 0008425 121.2020 239.0019 14.80599780611189"}}, "geometry": {"type": "Point", "coordinates": [-116.1633386467061, 68.3759572028097]}}, {"type": "Feature", "properties": {"norad_id": 40143, "name": "YAOGAN-21", "group": "resource", "lat": -22.93014602345695, "lon": 30.28423271420476, "alt_km": 498.4132551875582, "timestamp": "2025-12-09T18:55:16.895716+00:00", "meta": {"OBJECT_NAME": "YAOGAN-21", "OBJECT_ID": "2014-053A", "EPOCH": "2025-12-09T14:17:38.067072", "MEAN_MOTION": 15.23623426, "ECCENTRICITY": 0.00099824, "INCLINATION": 97.1754, "RA_OF_ASC_NODE": 27.0448, "ARG_OF_PERICENTER": 50.5511, "MEAN_ANOMALY": 309.6608, "EPHEMERIS_TYPE": 0, "CLASSIFICATION_TYPE": "U", "NORAD_CAT_ID": 40143, "ELEMENT_SET_NO": 999, "REV_AT_EPOCH": 62606, "BSTAR": 0.00046718457, "MEAN_MOTION_DOT": 0.00011145, "MEAN_MOTION_DDOT": 0}, "tle": {"line1": "1 40143U 14053A   25343.59557948  .00011145  00000+0  46718-3 0  9994", "line2": "2 40143  97.1754  27.0448 0009982  50.5511 309.6608 15.23623426626063"}}, "geometry": {"type": "Point", "coordinates": [30.28423271420476, -22.93014602345695]}}, {"type": "Feature", "properties": {"norad_id": 40275, "name": "YAOGAN-22", "group": "resource", "lat": -38.861999845261906, "lon": -61.632180411723176, "alt_km": 1204.4784204318894, "timestamp": "2025-12-09T18:55:16.895726+00:00", "meta": {"OBJECT_NAME": "YAOGAN-22", "OBJECT_ID": "2014-063A", "EPOCH": "2025-12-09T15:58:57.912384", "MEAN_MOTION": 13.15522508, "ECCENTRICITY": 0.0005932, "INCLINATION": 100.742, "RA_OF_ASC_NODE": 127.0421, "ARG_OF_PERICENTER": 255.7153, "MEAN_ANOMALY": 104.33, "EPHEMERIS_TYPE": 0, "CLASSIFICATION_TYPE": "U", "NORAD_CAT_ID": 40275, "ELEMENT_SET_NO": 999, "REV_AT_EPOCH": 53489, "BSTAR": 0.00012180864, "MEAN_MOTION_DOT": -1e-08, "MEAN_MOTION_DDOT": 0}, "tle": {"line1": "1 40275U 14063A   25343.66594806 -.00000001  00000+0  12181-3 0  9990", "line2": "2 40275 100.7420 127.0421 0005932 255.7153 104.3300 13.15522508534890"}}, "geometry": {"type": "Point", "coordinates": [-61.632180411723176, -38.861999845261906]}}, {"type": "Feature", "properties": {"norad_id": 40298, "name": "ASNARO", "group": "resource", "lat": 68.18429497912418, "lon": 40.95495851382675, "alt_km": 499.196348674981, "timestamp": "2025-12-09T18:55:16.895736+00:00", "meta": {"OBJECT_NAME": "ASNARO", "OBJECT_ID": "2014-070A", "EPOCH": "2025-12-09T15:27:20.827584", "MEAN_MOTION": 15.19391452, "ECCENTRICITY": 0.00053775, "INCLINATION": 97.3649, "RA_OF_ASC_NODE": 59.6663, "ARG_OF_PERICENTER": 129.7889, "MEAN_ANOMALY": 230.382, "EPHEMERIS_TYPE": 0, "CLASSIFICATION_TYPE": "U", "NORAD_CAT_ID": 40298, "ELEMENT_SET_NO": 999, "REV_AT_EPOCH": 61522, "BSTAR": 0.00074037541, "MEAN_MOTION_DOT": 0.00015628, "MEAN_MOTION_DDOT": 0}, "tle": {"line1": "1 40298U 14070A   25343.64399106  .00015628  00000+0  74038-3 0  9996", "line2": "2 40298  97.3649  59.6663 0005377 129.7889 230.3820 15.19391452615228"}}, "geometry": {"type": "Point", "coordinates": [40.95495851382675, 68.18429497912418]}}, {"type": "Feature", "properties": {"norad_id": 40310, "name": "YAOGAN-24", "group": "resource", "lat": 38.622854699571846, "lon": -58.58214559791427, "alt_km": 628.3732341380937, "timestamp": "2025-12-09T18:55:16.895747+00:00", "meta": {"OBJECT_NAME": "YAOGAN-24", "OBJECT_ID": "2014-072A", "EPOCH": "2025-12-09T15:01:56.062848", "MEAN_MOTION": 14.76167747, "ECCENTRICITY": 0.00145978, "INCLINATION": 98.1225, "RA_OF_ASC_NODE": 114.7031, "ARG_OF_PERICENTER": 147.3987, "MEAN_ANOMALY": 212.8126, "EPHEMERIS_TYPE": 0, "CLASSIFICATION_TYPE": "U", "NORAD_CAT_ID": 40310, "ELEMENT_SET_NO": 999, "REV_AT_EPOCH": 59575, "BSTAR": 0.00025519317, "MEAN_MOTION_DOT": 1.714e-05, "MEAN_MOTION_DDOT": 0}, "tle": {"line1": "1 40310U 14072A   25343.62634332  .00001714  00000+0  25519-3 0  9995", "line2": "2 40310  98.1225 114.7031 0014597 147.3987 212.8126 14.76167747595752"}}, "geometry": {"type": "Point", "coordinates": [-58.58214559791427, 38.622854699571846]}}, {"type": "Feature", "properties": {"norad_id": 40336, "name": "CBERS 4", "group": "resource", "lat": -46.76922790071145, "lon": 50.87321575707362, "alt_km": 781.18712251543, "timestamp": "2025-12-09T18:55:16.895757+00:00", "meta": {"OBJECT_NAME": "CBERS 4", "OBJECT_ID": "2014-079A", "EPOCH": "2025-12-09T15:47:46.499712", "MEAN_MOTION": 14.35516076, "ECCENTRICITY": 0.00015725, "INCLINATION": 98.3308, "RA_OF_ASC_NODE": 41.7803, "ARG_OF_PERICENTER": 114.6579, "MEAN_ANOMALY": 245.4771, "EPHEMERIS_TYPE": 0, "CLASSIFICATION_TYPE": "U", "NORAD_CAT_ID": 40336, "ELEMENT_SET_NO": 999, "REV_AT_EPOCH": 57676, "BSTAR": 9.9715748e-05, "MEAN_MOTION_DOT": 2.45e-06, "MEAN_MOTION_DDOT": 0}, "tle": {"line1": "1 40336U 14079A   25343.65817708  .00000245  00000+0  99716-4 0  9992", "line2": "2 40336  98.3308  41.7803 0001572 114.6579 245.4771 14.35516076576769"}}, "geometry": {"type": "Point", "coordinates": [50.87321575707362, -46.76922790071145]}}, {"type": "Feature", "properties": {"norad_id": 40362, "name": "YAOGAN-26", "group": "resource", "lat": -65.76800397397355, "lon": 148.57342204453042, "alt_km": 459.9924603057834, "timestamp": "2025-12-09T18:55:16.895768+00:00", "meta": {"OBJECT_NAME": "YAOGAN-26", "OBJECT_ID": "2014-088A", "EPOCH": "2025-12-09T14:43:54.844608", "MEAN_MOTION": 15.39110633, "ECCENTRICITY": 0.00066979, "INCLINATION": 97.0645, "RA_OF_ASC_NODE": 344.399, "ARG_OF_PERICENTER": 38.1762, "MEAN_ANOMALY": 321.9958, "EPHEMERIS_TYPE": 0, "CLASSIFICATION_TYPE": "U", "NORAD_CAT_ID": 40362, "ELEMENT_SET_NO": 999, "REV_AT_EPOCH": 60846, "BSTAR": 0.00027423163, "MEAN_MOTION_DOT": 0.00010559, "MEAN_MOTION_DDOT": 0}, "tle": {"line1": "1 40362U 14088A   25343.61382922  .00010559  00000+0  27423-3 0  9996", "line2": "2 40362  97.0645 344.3990 0006697  38.1762 321.9958 15.39110633608468"}}, "geometry": {"type": "Point", "coordinates": [148.57342204453042, -65.76800397397355]}}, {"type": "Feature", "properties": {"norad_id": 40376, "name": "SMAP", "group": "resource", "lat": -39.909135997577096, "lon": 161.68856007843786, "alt_km": 689.4937150224941, "timestamp": "2025-12-09T18:55:16.895777+00:00", "meta": {"OBJECT_NAME": "SMAP", "OBJECT_ID": "2015-003A", "EPOCH": "2025-12-09T14:38:08.346912", "MEAN_MOTION": 14.63339226, "ECCENTRICITY": 0.00012066, "INCLINATION": 98.1291, "RA_OF_ASC_NODE": 348.3787, "ARG_OF_PERICENTER": 88.7618, "MEAN_ANOMALY": 271.3722, "EPHEMERIS_TYPE": 0, "CLASSIFICATION_TYPE": "U", "NORAD_CAT_ID": 40376, "ELEMENT_SET_NO": 999, "REV_AT_EPOCH": 57989, "BSTAR": 0.00020517611, "MEAN_MOTION_DOT": 1.013e-05, "MEAN_MOTION_DDOT": 0}, "tle": {"line1": "1 40376U 15003A   25343.60981883  .00001013  00000+0  20518-3 0  9992", "line2": "2 40376  98.1291 348.3787 0001206  88.7618 271.3722 14.63339226579890"}}, "geometry": {"type": "Point", "coordinates": [161.68856007843786, -39.909135997577096]}}, {"type": "Feature", "properties": {"norad_id": 40536, "name": "KOMPSAT-3A", "group": "resource", "lat": 41.58978842399772, "lon": 144.84999758369273, "alt_km": 428.6027180664305, "timestamp": "2025-12-09T18:55:16.895787+00:00", "meta": {"OBJECT_NAME": "KOMPSAT-3A", "OBJECT_ID": "2015-014A", "EPOCH": "2025-12-09T15:12:54.239040", "MEAN_MOTION": 15.43766452, "ECCENTRICITY": 0.00045769, "INCLINATION": 97.6792, "RA_OF_ASC_NODE": 317.8091, "ARG_OF_PERICENTER": 133.1214, "MEAN_ANOMALY": 227.0416, "EPHEMERIS_TYPE": 0, "CLASSIFICATION_TYPE": "U", "NORAD_CAT_ID": 40536, "ELEMENT_SET_NO": 999, "REV_AT_EPOCH": 59247, "BSTAR": 0.00058762101, "MEAN_MOTION_DOT": 0.00026545, "MEAN_MOTION_DDOT": 0}, "tle": {"line1": "1 40536U 15014A   25343.63396110  .00026545  00000+0  58762-3 0  9997", "line2": "2 40536  97.6792 317.8091 0004576 133.1214 227.0416 15.43766452592478"}}, "geometry": {"type": "Point", "coordinates": [144.84999758369273, 41.58978842399772]}}]}